NORAD_CAT_ID,OBJECT_NAME,OBJECT_TYPE,EPOCH,MEAN_MOTION,ECCENTRICITY,INCLINATION,RA_OF_ASC_NODE,ARG_OF_PERICENTER,MEAN_ANOMALY,BSTAR,MEAN_MOTION_DOT,MEAN_MOTION_DDOT,TLE_LINE0,TLE_LINE1,TLE_LINE2,SEMIMAJOR_AXIS,PERIOD,APOGEE,PERIGEE,DECAYED
49727.0,STARLINK-3242,PAYLOAD,2024-04-29 06:31:30,15.08839964,0.000124,53.2175,329.1473,86.2018,273.9116,0.00026706,3.965e-05,0.0,0 STARLINK-3242,1 49727U 21115D   24120.27187694  .00003965  00000-0  26706-3 0  9999,2 49727  53.2175 329.1473 0001240  86.2018 273.9116 15.08839964132823,6917.88,95.438,540.603,538.888,0.0
49727.0,STARLINK-3242,PAYLOAD,2024-04-29 19:14:35,15.08839298,0.0001359,53.217,326.7693,88.6859,271.4289,0.00010356,1.361e-05,0.0,0 STARLINK-3242,1 49727U 21115D   24120.80179945  .00001361  00000-0  10356-3 0  9990,2 49727  53.2170 326.7693 0001359  88.6859 271.4289 15.08839298132908,6917.883,95.438,540.688,538.807,0.0
49727.0,STARLINK-3242,PAYLOAD,2024-04-30 06:22:17,15.08842394,0.0001377,53.2172,324.688,91.7715,268.3435,0.00018598,2.673e-05,0.0,0 STARLINK-3242,1 49727U 21115D   24121.26547880  .00002673  00000-0  18598-3 0  9991,2 49727  53.2172 324.6880 0001377  91.7715 268.3435 15.08842394134092,6917.873,95.437,540.691,538.785,0.0
49727.0,STARLINK-3242,PAYLOAD,2024-04-30 22:16:08,15.08848552,0.000139,53.2173,321.714,91.0533,269.0618,0.00023008,3.377e-05,0.0,0 STARLINK-3242,1 49727U 21115D   24121.92787603  .00003377  00000-0  23008-3 0  9997,2 49727  53.2173 321.7140 0001390  91.0533 269.0618 15.08848552133076,6917.854,95.437,540.681,538.758,0.0
49727.0,STARLINK-3242,PAYLOAD,2024-05-01 06:13:04,15.08843531,0.0001232,53.2161,320.2247,90.4515,269.6618,9.3581e-05,1.202e-05,0.0,0 STARLINK-3242,1 49727U 21115D   24122.25907612  .00001202  00000-0  93581-4 0  9997,2 49727  53.2161 320.2247 0001232  90.4515 269.6618 15.08843531133127,6917.87,95.437,540.587,538.882,0.0
49727.0,STARLINK-3242,PAYLOAD,2024-05-02 12:25:23,15.08840269,0.0001354,53.2141,314.5743,87.7214,272.3933,7.1247e-05,8.46e-06,0.0,0 STARLINK-3242,1 49727U 21115D   24123.51763739  .00000846  00000-0  71247-4 0  9995,2 49727  53.2141 314.5743 0001354  87.7214 272.3933 15.08840269134433,6917.88,95.438,540.681,538.808,0.0
49727.0,STARLINK-3242,PAYLOAD,2024-05-03 12:16:10,15.08847692,0.0001252,53.2152,310.1151,85.4313,274.6823,0.00020388,2.959e-05,0.0,0 STARLINK-3242,1 49727U 21115D   24124.51123225  .00002959  00000-0  20388-3 0  9992,2 49727  53.2152 310.1151 0001252  85.4313 274.6823 15.08847692133464,6917.857,95.437,540.588,538.856,0.0
49727.0,STARLINK-3242,PAYLOAD,2024-05-03 18:37:42,15.08853398,0.0001104,53.2154,308.9254,91.0121,269.0998,0.00026972,4.009e-05,0.0,0 STARLINK-3242,1 49727U 21115D   24124.77618894  .00004009  00000-0  26972-3 0  9994,2 49727  53.2154 308.9254 0001104  91.0121 269.0998 15.08853398134621,6917.839,95.437,540.468,538.941,0.0
49727.0,STARLINK-3242,PAYLOAD,2024-05-04 05:45:24,15.08845529,0.0001185,53.2147,306.8444,86.5632,273.5496,0.00022037,3.222e-05,0.0,0 STARLINK-3242,1 49727U 21115D   24125.23987162  .00003222  00000-0  22037-3 0  9997,2 49727  53.2147 306.8444 0001185  86.5632 273.5496 15.08845529134693,6917.863,95.437,540.548,538.909,0.0
49727.0,STARLINK-3242,PAYLOAD,2024-05-04 18:28:30,15.08836232,0.0001433,53.215,304.4648,97.4036,262.7119,5.8837e-05,6.48e-06,0.0,0 STARLINK-3242,1 49727U 21115D   24125.76979876  .00000648  00000-0  58837-4 0  9995,2 49727  53.2150 304.4648 0001433  97.4036 262.7119 15.08836232134774,6917.892,95.438,540.748,538.766,0.0
49727.0,STARLINK-3242,PAYLOAD,2024-05-05 11:57:45,15.0883981,0.0001406,53.2163,301.1938,100.8986,259.2164,8.9167e-05,1.131e-05,0.0,0 STARLINK-3242,1 49727U 21115D   24126.49843777  .00001131  00000-0  89167-4 0  9994,2 49727  53.2163 301.1938 0001406 100.8986 259.2164 15.08839810133761,6917.881,95.438,540.719,538.773,0.0
49727.0,STARLINK-3242,PAYLOAD,2024-05-05 16:43:54,15.08843739,0.0001577,53.2171,300.302,102.6674,257.4494,0.00017499,2.498e-05,0.0,0 STARLINK-3242,1 49727U 21115D   24126.69715722  .00002498  00000-0  17499-3 0  9999,2 49727  53.2171 300.3020 0001577 102.6674 257.4494 15.08843739133790,6917.869,95.437,540.825,538.643,0.0
49727.0,STARLINK-3242,PAYLOAD,2024-05-06 14:59:18,15.08844593,0.0001292,53.2155,296.1394,97.9328,262.1811,0.00031073,4.661e-05,0.0,0 STARLINK-3242,1 49727U 21115D   24127.62451883  .00004661  00000-0  31073-3 0  9996,2 49727  53.2155 296.1394 0001292  97.9328 262.1811 15.08844593133935,6917.866,95.437,540.625,538.838,0.0
49727.0,STARLINK-3242,PAYLOAD,2024-05-06 18:10:04,15.08849554,0.0001229,53.2164,295.5469,94.9303,265.183,0.0003977,6.049e-05,0.0,0 STARLINK-3242,1 49727U 21115D   24127.75699712  .00006049  00000-0  39770-3 0  9999,2 49727  53.2164 295.5469 0001229  94.9303 265.1830 15.08849554135074,6917.851,95.437,540.566,538.866,0.0
49727.0,STARLINK-3242,PAYLOAD,2024-05-07 11:39:19,15.08840155,0.0001388,53.2172,292.2758,95.8842,264.2309,5.02e-05,5.11e-06,0.0,0 STARLINK-3242,1 49727U 21115D   24128.48563937  .00000511  00000-0  50200-4 0  9999,2 49727  53.2172 292.2758 0001388  95.8842 264.2309 15.08840155135183,6917.88,95.438,540.705,538.785,0.0
49727.0,STARLINK-3242,PAYLOAD,2024-05-07 14:50:05,15.08838221,0.0001381,53.2178,291.6815,101.4554,258.6593,1.803e-05,-1e-08,0.0,0 STARLINK-3242,1 49727U 21115D   24128.61811998 -.00000001  00000-0  18030-4 0  9997,2 49727  53.2178 291.6815 0001381 101.4554 258.6593 15.08838221134084,6917.886,95.438,540.706,538.795,0.0
49727.0,STARLINK-3242,PAYLOAD,2024-05-07 18:00:51,15.08840136,0.0001301,53.2181,291.0865,94.37,265.7441,5.6838e-05,6.17e-06,0.0,0 STARLINK-3242,1 49727U 21115D   24128.75060037  .00000617  00000-0  56838-4 0  9992,2 49727  53.2181 291.0865 0001301  94.3700 265.7441 15.08840136134104,6917.88,95.438,540.645,538.845,0.0
49727.0,STARLINK-3242,PAYLOAD,2024-05-08 14:40:53,15.08833905,0.0001286,53.218,287.2197,99.3476,260.7662,-8.835e-05,-1.693e-05,0.0,0 STARLINK-3242,1 49727U 21115D   24129.61172487 -.00001693  00000-0 -88350-4 0  9992,2 49727  53.2180 287.2197 0001286  99.3476 260.7662 15.08833905134235,6917.899,95.438,540.654,538.874,0.0
49727.0,STARLINK-3242,PAYLOAD,2024-05-08 17:51:38,15.08844609,0.0001032,53.2163,286.6203,85.1642,274.9468,4.9174e-05,4.95e-06,0.0,0 STARLINK-3242,1 49727U 21115D   24129.74419929  .00000495  00000-0  49174-4 0  9999,2 49727  53.2163 286.6203 0001032  85.1642 274.9468 15.08844609135374,6917.866,95.437,540.445,539.017,0.0
49727.0,STARLINK-3242,PAYLOAD,2024-05-09 03:23:57,15.08839569,0.000105,53.2164,284.8368,85.6812,274.43,9.5223e-05,1.228e-05,0.0,0 STARLINK-3242,1 49727U 21115D   24130.14164320  .00001228  00000-0  95223-4 0  9998,2 49727  53.2164 284.8368 0001050  85.6812 274.4300 15.08839569135437,6917.882,95.438,540.473,539.02,0.0
49727.0,STARLINK-3242,PAYLOAD,2024-05-09 14:31:40,15.08840852,0.0001229,53.2167,282.7565,92.0562,268.0571,0.00018559,2.667e-05,0.0,0 STARLINK-3242,1 49727U 21115D   24130.60532557  .00002667  00000-0  18559-3 0  9994,2 49727  53.2167 282.7565 0001229  92.0562 268.0571 15.08840852134387,6917.878,95.438,540.593,538.893,0.0
49727.0,STARLINK-3242,PAYLOAD,2024-05-09 17:42:26,15.08846934,0.0001193,53.2167,282.1615,92.3608,267.752,0.00022911,3.361e-05,0.0,0 STARLINK-3242,1 49727U 21115D   24130.73780195  .00003361  00000-0  22911-3 0  9990,2 49727  53.2167 282.1615 0001193  92.3608 267.7520 15.08846934134401,6917.859,95.437,540.549,538.899,0.0
49727.0,STARLINK-3242,PAYLOAD,2024-05-10 03:14:45,15.08841753,0.0001279,53.2172,280.3776,72.9743,287.1389,0.00015099,2.116e-05,0.0,0 STARLINK-3242,1 49727U 21115D   24131.13524646  .00002116  00000-0  15099-3 0  9998,2 49727  53.2172 280.3776 0001279  72.9743 287.1389 15.08841753134463,6917.875,95.437,540.625,538.855,0.0
49727.0,STARLINK-3242,PAYLOAD,2024-05-10 17:33:13,15.08840137,0.000113,53.2179,277.7014,71.1166,288.9949,0.00011531,1.548e-05,0.0,0 STARLINK-3242,1 49727U 21115D   24131.73140964  .00001548  00000-0  11531-3 0  9996,2 49727  53.2179 277.7014 0001130  71.1166 288.9949 15.08840137135671,6917.88,95.438,540.527,538.963,0.0
49727.0,STARLINK-3242,PAYLOAD,2024-05-11 18:59:18,15.08952566,3.56e-05,53.2168,272.9433,171.9236,188.1762,0.0020702,0.00032915,0.0,0 STARLINK-3242,1 49727U 21115D   24132.79118653  .00032915  00000-0  20702-2 0  9994,2 49727  53.2168 272.9433 0000356 171.9236 188.1762 15.08952566135839,6917.536,95.43,539.648,539.155,0.0
49727.0,STARLINK-3242,PAYLOAD,2024-05-12 02:56:18,15.08768574,3.4e-05,53.2169,271.4571,42.426,317.6758,-0.0031578,-0.00050095,0.0,0 STARLINK-3242,1 49727U 21115D   24133.12243711 -.00050095  00000-0 -31578-2 0  9990,2 49727  53.2169 271.4571 0000340  42.4260 317.6758 15.08768574135882,6918.099,95.442,540.199,539.729,0.0
49727.0,STARLINK-3242,PAYLOAD,2024-05-12 14:04:03,15.08731451,0.0001595,53.2145,269.3746,83.1396,276.9778,-0.0028677,-0.00045505,0.0,0 STARLINK-3242,1 49727U 21115D   24133.58615343 -.00045505  00000-0 -28677-2 0  9990,2 49727  53.2145 269.3746 0001595  83.1396 276.9778 15.08731451134838,6918.212,95.444,541.181,538.974,0.0
49727.0,STARLINK-3242,PAYLOAD,2024-05-12 22:01:01,15.0871343,0.0001523,53.2172,267.8897,82.9387,277.1778,-0.0018998,-0.00030292,0.0,0 STARLINK-3242,1 49727U 21115D   24133.91738403 -.00030292  00000-0 -18998-2 0  9992,2 49727  53.2172 267.8897 0001523  82.9387 277.1778 15.08713430134881,6918.267,95.446,541.186,539.079,0.0
49727.0,STARLINK-3242,PAYLOAD,2024-05-13 12:19:30,15.08821136,0.0001533,53.2167,265.2117,88.7969,271.3199,0.0025723,0.00040867,0.0,0 STARLINK-3242,1 49727U 21115D   24134.51354553  .00040867  00000-0  25723-2 0  9990,2 49727  53.2167 265.2117 0001533  88.7969 271.3199 15.08821136136094,6917.938,95.439,540.864,538.743,0.0
49727.0,STARLINK-3242,PAYLOAD,2024-05-13 15:30:16,15.08826839,0.0001601,53.2167,264.6175,69.433,290.6834,0.0026981,0.00042898,0.0,0 STARLINK-3242,1 49727U 21115D   24134.64602914  .00042898  00000-0  26981-2 0  9994,2 49727  53.2167 264.6175 0001601  69.4330 290.6834 15.08826839134997,6917.921,95.438,540.893,538.678,0.0
